ONEWEB-0207             
1 48242U 21031AJ  26013.12625317 -.00000017  00000+0 -81467-4 0  9995
2 48242  87.9023 320.5912 0001856  85.5869 274.5472 13.14504963227923
ONEWEB-0208             
1 48243U 21031AK  26013.10803302 -.00000272  00000+0 -76945-3 0  9993
2 48243  87.9022 320.6078 0001452  81.6987 278.4307 13.14503378227937
ONEWEB-0200             
1 48244U 21031AL  26013.14767799  .00000233  00000+0  59394-3 0  9991
2 48244  87.9022 320.5893 0001629  81.1815 278.9500 13.14503855227865
ONEWEB-0217             
1 48245U 21031AM  26013.08738753  .00001694  00000+0  45337-2 0  9996
2 48245  87.9030 320.5987 0001580  82.7760 277.3549 13.14519965227800
ONEWEB-0211             
1 48767U 21045A   26013.10749588 -.00000030  00000+0 -11218-3 0  9998
2 48767  87.9014 290.0663 0001190  69.5070 290.6188 13.16139001224048
ONEWEB-0223             
1 48768U 21045B   26013.03632019 -.00000078  00000+0 -24182-3 0  9997
2 48768  87.9010 290.1506 0001343  61.3289 298.7976 13.15547171224004
ONEWEB-0230             
1 48769U 21045C   26013.15990986  .00000065  00000+0  13834-3 0  9997
2 48769  87.9006 290.1534 0001778  74.0134 286.1192 13.15549097224283
ONEWEB-0237             
1 48770U 21045D   26013.14881897  .00000131  00000+0  31506-3 0  9998
2 48770  87.9008 290.1564 0001557  63.8507 296.2783 13.15549280224007
